IRIDIUM 151             
1 43074U 17083E   22230.71772169  .00000195  00000+0  62645-4 0  9997
2 43074  86.4024 186.4851 0002481  80.7276 279.4201 14.34219510243691
IRIDIUM 134             
1 43075U 17083F   22231.17438470  .00000201  00000+0  64837-4 0  9996
2 43075  86.4026 186.2832 0002126  89.5297 270.6142 14.34220647243721
IRIDIUM 137             
1 43076U 17083G   22230.62891594  .00000204  00000+0  65661-4 0  9995
2 43076  86.4027 186.5770 0002540  81.8579 278.2905 14.34213888243714
IRIDIUM 141             
1 43077U 17083H   22230.41327236  .00000208  00000+0  67306-4 0  9992
2 43077  86.4024 186.5750 0002178  80.7485 279.3957 14.34214880243689
IRIDIUM 153             
1 43078U 17083J   22230.29569771  .00000219  00000+0  70973-4 0  9997
2 43078  86.4026 155.1134 0002008  72.6357 287.5058 14.34218096244777
IRIDIUM 131             
1 43079U 17083K   22230.40056666  .00000375  00000+0  12673-3 0  9990
2 43079  86.4027 186.6728 0001995  80.1456 279.9965 14.34213770243613
IRIDIUM 144             
1 43249U 18030A   22230.23225382  .00000216  00000+0  70061-4 0  9996
2 43249  86.4024 155.1074 0002114  89.9189 270.2249 14.34221830229628
IRIDIUM 149             
1 43250U 18030B   22230.30835929  .00000217  00000+0  70363-4 0  9996
2 43250  86.4022 155.0577 0002242  90.1854 269.9599 14.34222237229658
IRIDIUM 157             
1 43251U 18030C   22230.32740501  .00000210  00000+0  67841-4 0  9990
2 43251  86.4024 155.0722 0002356  76.6618 283.4841 14.34222016229630
IRIDIUM 140             
1 43252U 18030D   22230.34643350  .00000216  00000+0  69944-4 0  9999
2 43252  86.4024 155.0792 0002088  94.5761 265.5673 14.34221091229690
IRIDIUM 145             
1 43253U 18030E   22230.89188342  .00000196  00000+0  62832-4 0  9991
2 43253  86.4023 154.8277 0002756  96.8324 263.3186 14.34221984229705
IRIDIUM 146             
1 43254U 18030F   22230.73332665  .00000194  00000+0  62202-4 0  9993
2 43254  86.4024 154.9099 0002479  88.6476 271.5004 14.34216024229696
IRIDIUM 148             
1 43255U 18030G   22230.35276928  .00000224  00000+0  73071-4 0  9991
2 43255  86.4025 155.0915 0002425  80.7303 279.4166 14.34222260229673
IRIDIUM 142             
1 43256U 18030H   22230.66990366  .00000194  00000+0  62126-4 0  9990
2 43256  86.4022 154.8994 0002306  84.4104 275.7355 14.34221386229681
IRIDIUM 150             
1 43257U 18030J   22230.28933788  .00000195  00000+0  62398-4 0  9996
2 43257  86.4006 155.1314 0001788  93.5632 266.5768 14.34220021229652
IRIDIUM 143             
1 43258U 18030K   22230.34008798  .00000218  00000+0  70625-4 0  9996
2 43258  86.4028 155.1437 0002396  90.9153 269.2317 14.34216454229596
IRIDIUM 161             
1 43478U 18047C   22230.28067237  .00000249  00000+0  68141-4 0  9998
2 43478  86.4508 313.0889 0002012 101.0570 259.0857 14.43276975223360
