[{"OBJECT_NAME":"IRIDIUM 151","OBJECT_ID":"2017-083E","EPOCH":"2022-08-18T17:13:31.154016","MEAN_MOTION":14.3421951,"ECCENTRICITY":0.0002481,"INCLINATION":86.4024,"RA_OF_ASC_NODE":186.4851,"ARG_OF_PERICENTER":80.7276,"MEAN_ANOMALY":279.4201,"EPHEMERIS_TYPE":0,"CLASSIFICATION_TYPE":"U","NORAD_CAT_ID":43074,"ELEMENT_SET_NO":999,"REV_AT_EPOCH":24369,"BSTAR":6.2645e-5,"MEAN_MOTION_DOT":1.95e-6,"MEAN_MOTION_DDOT":0},{"OBJECT_NAME":"IRIDIUM 134","OBJECT_ID":"2017-083F","EPOCH":"2022-08-19T04:11:06.838080","MEAN_MOTION":14.34220647,"ECCENTRICITY":0.0002126,"INCLINATION":86.4026,"RA_OF_ASC_NODE":186.2832,"ARG_OF_PERICENTER":89.5297,"MEAN_ANOMALY":270.6142,"EPHEMERIS_TYPE":0,"CLASSIFICATION_TYPE":"U","NORAD_CAT_ID":43075,"ELEMENT_SET_NO":999,"REV_AT_EPOCH":24372,"BSTAR":6.4837e-5,"MEAN_MOTION_DOT":2.01e-6,"MEAN_MOTION_DDOT":0},{"OBJECT_NAME":"IRIDIUM 137","OBJECT_ID":"2017-083G","EPOCH":"2022-08-18T15:05:38.337216","MEAN_MOTION":14.34213888,"ECCENTRICITY":0.000254,"INCLINATION":86.4027,"RA_OF_ASC_NODE":186.577,"ARG_OF_PERICENTER":81.8579,"MEAN_ANOMALY":278.2905,"EPHEMERIS_TYPE":0,"CLASSIFICATION_TYPE":"U","NORAD_CAT_ID":43076,"ELEMENT_SET_NO":999,"REV_AT_EPOCH":24371,"BSTAR":6.5661e-5,"MEAN_MOTION_DOT":2.04e-6,"MEAN_MOTION_DDOT":0},{"OBJECT_NAME":"IRIDIUM 141","OBJECT_ID":"2017-083H","EPOCH":"2022-08-18T09:55:06.731904","MEAN_MOTION":14.3421488,"ECCENTRICITY":0.0002178,"INCLINATION":86.4024,"RA_OF_ASC_NODE":186.575,"ARG_OF_PERICENTER":80.7485,"MEAN_ANOMALY":279.3957,"EPHEMERIS_TYPE":0,"CLASSIFICATION_TYPE":"U","NORAD_CAT_ID":43077,"ELEMENT_SET_NO":999,"REV_AT_EPOCH":24368,"BSTAR":6.7306e-5,"MEAN_MOTION_DOT":2.08e-6,"MEAN_MOTION_DDOT":0},{"OBJECT_NAME":"IRIDIUM 153","OBJECT_ID":"2017-083J","EPOCH":"2022-08-18T07:05:48.282144","MEAN_MOTION":14.34218096,"ECCENTRICITY":0.0002008,"INCLINATION":86.4026,"RA_OF_ASC_NODE":155.1134,"ARG_OF_PERICENTER":72.6357,"MEAN_ANOMALY":287.5058,"EPHEMERIS_TYPE":0,"CLASSIFICATION_TYPE":"U","NORAD_CAT_ID":43078,"ELEMENT_SET_NO":999,"REV_AT_EPOCH":24477,"BSTAR":7.0973e-5,"MEAN_MOTION_DOT":2.19e-6,"MEAN_MOTION_DDOT":0},{"OBJECT_NAME":"IRIDIUM 131","OBJECT_ID":"2017-083K","EPOCH":"2022-08-18T09:36:48.959424","MEAN_MOTION":14.3421377,"ECCENTRICITY":0.0001995,"INCLINATION":86.4027,"RA_OF_ASC_NODE":186.6728,"ARG_OF_PERICENTER":80.1456,"MEAN_ANOMALY":279.9965,"EPHEMERIS_TYPE":0,"CLASSIFICATION_TYPE":"U","NORAD_CAT_ID":43079,"ELEMENT_SET_NO":999,"REV_AT_EPOCH":24361,"BSTAR":0.00012673,"MEAN_MOTION_DOT":3.75e-6,"MEAN_MOTION_DDOT":0},{"OBJECT_NAME":"IRIDIUM 144","OBJECT_ID":"2018-030A","EPOCH":"2022-08-18T05:34:26.730048","MEAN_MOTION":14.3422183,"ECCENTRICITY":0.0002114,"INCLINATION":86.4024,"RA_OF_ASC_NODE":155.1074,"ARG_OF_PERICENTER":89.9189,"MEAN_ANOMALY":270.2249,"EPHEMERIS_TYPE":0,"CLASSIFICATION_TYPE":"U","NORAD_CAT_ID":43249,"ELEMENT_SET_NO":999,"REV_AT_EPOCH":22962,"BSTAR":7.0061e-5,"MEAN_MOTION_DOT":2.16e-6,"MEAN_MOTION_DDOT":0},{"OBJECT_NAME":"IRIDIUM 149","OBJECT_ID":"2018-030B","EPOCH":"2022-08-18T07:24:02.242656","MEAN_MOTION":14.34222237,"ECCENTRICITY":0.0002242,"INCLINATION":86.4022,"RA_OF_ASC_NODE":155.0577,"ARG_OF_PERICENTER":90.1854,"MEAN_ANOMALY":269.9599,"EPHEMERIS_TYPE":0,"CLASSIFICATION_TYPE":"U","NORAD_CAT_ID":43250,"ELEMENT_SET_NO":999,"REV_AT_EPOCH":22965,"BSTAR":7.0363e-5,"MEAN_MOTION_DOT":2.17e-6,"MEAN_MOTION_DDOT":0},{"OBJECT_NAME":"IRIDIUM 157","OBJECT_ID":"2018-030C","EPOCH":"2022-08-18T07:51:27.792864","MEAN_MOTION":14.34222016,"ECCENTRICITY":0.0002356,"INCLINATION":86.4024,"RA_OF_ASC_NODE":155.0722,"ARG_OF_PERICENTER":76.6618,"MEAN_ANOMALY":283.4841,"EPHEMERIS_TYPE":0,"CLASSIFICATION_TYPE":"U","NORAD_CAT_ID":43251,"ELEMENT_SET_NO":999,"REV_AT_EPOCH":22963,"BSTAR":6.7841e-5,"MEAN_MOTION_DOT":2.1e-6,"MEAN_MOTION_DDOT":0},{"OBJECT_NAME":"IRIDIUM 140","OBJECT_ID":"2018-030D","EPOCH":"2022-08-18T08:18:51.854400","MEAN_MOTION":14.34221091,"ECCENTRICITY":0.0002088,"INCLINATION":86.4024,"RA_OF_ASC_NODE":155.0792,"ARG_OF_PERICENTER":94.5761,"MEAN_ANOMALY":265.5673,"EPHEMERIS_TYPE":0,"CLASSIFICATION_TYPE":"U","NORAD_CAT_ID":43252,"ELEMENT_SET_NO":999,"REV_AT_EPOCH":22969,"BSTAR":6.9944e-5,"MEAN_MOTION_DOT":2.16e-6,"MEAN_MOTION_DDOT":0},{"OBJECT_NAME":"IRIDIUM 145","OBJECT_ID":"2018-030E","EPOCH":"2022-08-18T21:24:18.727488","MEAN_MOTION":14.34221984,"ECCENTRICITY":0.0002756,"INCLINATION":86.4023,"RA_OF_ASC_NODE":154.8277,"ARG_OF_PERICENTER":96.8324,"MEAN_ANOMALY":263.3186,"EPHEMERIS_TYPE":0,"CLASSIFICATION_TYPE":"U","NORAD_CAT_ID":43253,"ELEMENT_SET_NO":999,"REV_AT_EPOCH":22970,"BSTAR":6.2832e-5,"MEAN_MOTION_DOT":1.96e-6,"MEAN_MOTION_DDOT":0},{"OBJECT_NAME":"IRIDIUM 146","OBJECT_ID":"2018-030F","EPOCH":"2022-08-18T17:35:59.422560","MEAN_MOTION":14.34216024,"ECCENTRICITY":0.0002479,"INCLINATION":86.4024,"RA_OF_ASC_NODE":154.9099,"ARG_OF_PERICENTER":88.6476,"MEAN_ANOMALY":271.5004,"EPHEMERIS_TYPE":0,"CLASSIFICATION_TYPE":"U","NORAD_CAT_ID":43254,"ELEMENT_SET_NO":999,"REV_AT_EPOCH":22969,"BSTAR":6.2202e-5,"MEAN_MOTION_DOT":1.94e-6,"MEAN_MOTION_DDOT":0},{"OBJECT_NAME":"IRIDIUM 148","OBJECT_ID":"2018-030G","EPOCH":"2022-08-18T08:27:59.265792","MEAN_MOTION":14.3422226,"ECCENTRICITY":0.0002425,"INCLINATION":86.4025,"RA_OF_ASC_NODE":155.0915,"ARG_OF_PERICENTER":80.7303,"MEAN_ANOMALY":279.4166,"EPHEMERIS_TYPE":0,"CLASSIFICATION_TYPE":"U","NORAD_CAT_ID":43255,"ELEMENT_SET_NO":999,"REV_AT_EPOCH":22967,"BSTAR":7.3071e-5,"MEAN_MOTION_DOT":2.24e-6,"MEAN_MOTION_DDOT":0},{"OBJECT_NAME":"IRIDIUM 142","OBJECT_ID":"2018-030H","EPOCH":"2022-08-18T16:04:39.676224","MEAN_MOTION":14.34221386,"ECCENTRICITY":0.0002306,"INCLINATION":86.4022,"RA_OF_ASC_NODE":154.8994,"ARG_OF_PERICENTER":84.4104,"MEAN_ANOMALY":275.7355,"EPHEMERIS_TYPE":0,"CLASSIFICATION_TYPE":"U","NORAD_CAT_ID":43256,"ELEMENT_SET_NO":999,"REV_AT_EPOCH":22968,"BSTAR":6.2126e-5,"MEAN_MOTION_DOT":1.94e-6,"MEAN_MOTION_DDOT":0},{"OBJECT_NAME":"IRIDIUM 150","OBJECT_ID":"2018-030J","EPOCH":"2022-08-18T06:56:38.792832","MEAN_MOTION":14.34220021,"ECCENTRICITY":0.0001788,"INCLINATION":86.4006,"RA_OF_ASC_NODE":155.1314,"ARG_OF_PERICENTER":93.5632,"MEAN_ANOMALY":266.5768,"EPHEMERIS_TYPE":0,"CLASSIFICATION_TYPE":"U","NORAD_CAT_ID":43257,"ELEMENT_SET_NO":999,"REV_AT_EPOCH":22965,"BSTAR":6.2398e-5,"MEAN_MOTION_DOT":1.95e-6,"MEAN_MOTION_DDOT":0},{"OBJECT_NAME":"IRIDIUM 143","OBJECT_ID":"2018-030K","EPOCH":"2022-08-18T08:09:43.601472","MEAN_MOTION":14.34216454,"ECCENTRICITY":0.0002396,"INCLINATION":86.4028,"RA_OF_ASC_NODE":155.1437,"ARG_OF_PERICENTER":90.9153,"MEAN_ANOMALY":269.2317,"EPHEMERIS_TYPE":0,"CLASSIFICATION_TYPE":"U","NORAD_CAT_ID":43258,"ELEMENT_SET_NO":999,"REV_AT_EPOCH":22959,"BSTAR":7.0625e-5,"MEAN_MOTION_DOT":2.18e-6,"MEAN_MOTION_DDOT":0},{"OBJECT_NAME":"IRIDIUM 161","OBJECT_ID":"2018-047C","EPOCH":"2022-08-18T06:44:10.092768","MEAN_MOTION":14.43276975,"ECCENTRICITY":0.0002012,"INCLINATION":86.4508,"RA_OF_ASC_NODE":313.0889,"ARG_OF_PERICENTER":101.057,"MEAN_ANOMALY":259.0857,"EPHEMERIS_TYPE":0,"CLASSIFICATION_TYPE":"U","NORAD_CAT_ID":43478,"ELEMENT_SET_NO":999,"REV_AT_EPOCH":22336,"BSTAR":6.8141e-5,"MEAN_MOTION_DOT":2.49e-6,"MEAN_MOTION_DDOT":0}]